{"type":"FeatureCollection","features":[{"type":"Feature","properties":{"mode":"bus","n":7,"arr":["1","18","22","41","122","148","409"],"lines":"1, 18, 22, 41, 122, 148, 409"},"geometry":{"type":"LineString","coordinates":[[27.887935,43.219353],[27.89337,43.216915],[27.897241,43.215215],[27.897364,43.215116],[27.897392,43.214962],[27.897513,43.214851],[27.897693,43.214798],[27.897892,43.214787],[27.898022,43.214806],[27.898267,43.214765],[27.900065,43.213962],[27.901805,43.21323],[27.903993,43.212539]]}},{"type":"Feature","properties":{"mode":"bus","n":7,"arr":["1","18","22","41","122","148","409"],"lines":"1, 18, 22, 41, 122, 148, 409"},"geometry":{"type":"LineString","coordinates":[[27.888167,43.2194],[27.893462,43.217031],[27.897277,43.215295],[27.897418,43.21528],[27.897639,43.215334],[27.897826,43.215343],[27.898032,43.215301],[27.898217,43.215165],[27.898235,43.214926],[27.898311,43.214835],[27.900822,43.213738],[27.901696,43.21337],[27.904058,43.212628]]}},{"type":"Feature","properties":{"mode":"bus","n":5,"arr":["9","31A","109","209 Б","409"],"lines":"9, 31A, 109, 209 Б, 409"},"geometry":{"type":"LineString","coordinates":[[27.976164,43.221344],[27.975678,43.220931],[27.975481,43.220801],[27.975156,43.22065],[27.974337,43.220433],[27.971418,43.219725],[27.97121,43.219646],[27.970398,43.219239],[27.969844,43.219047],[27.969428,43.218966],[27.967654,43.218788],[27.965721,43.218384],[27.965347,43.21833],[27.964765,43.218305],[27.963481,43.218342],[27.963186,43.218325],[27.962637,43.218226],[27.961427,43.217884],[27.958056,43.216811],[27.957486,43.216645],[27.957259,43.216626],[27.957072,43.216503],[27.955464,43.216016],[27.954011,43.215635]]}},{"type":"Feature","properties":{"mode":"bus","n":5,"arr":["9","31A","109","209 Б","409"],"lines":"9, 31A, 109, 209 Б, 409"},"geometry":{"type":"LineString","coordinates":[[27.954373,43.215614],[27.955356,43.215876],[27.95675,43.216294],[27.957188,43.216405],[27.957403,43.216422],[27.957615,43.216549],[27.958569,43.216885],[27.961855,43.217916],[27.962614,43.218123],[27.962947,43.218188],[27.963453,43.218242],[27.96376,43.218253],[27.964769,43.218223],[27.965368,43.218254],[27.967576,43.218678],[27.969404,43.218883],[27.969907,43.218973],[27.970374,43.219138],[27.971268,43.219561],[27.971722,43.219718],[27.975324,43.220595],[27.975855,43.220755],[27.976131,43.220915],[27.976425,43.221232],[27.976563,43.221259],[27.97673,43.221355],[27.976865,43.22159],[27.977272,43.221824],[27.977836,43.22229],[27.978201,43.222405],[27.980088,43.222531],[27.98413,43.223102],[27.985868,43.223308],[27.986551,43.223349],[27.98962,43.223346],[27.99233,43.223675],[27.993674,43.223751],[27.995363,43.223992],[27.996998,43.224342],[27.998942,43.224672],[27.99947,43.224794],[27.999814,43.224939],[27.999975,43.225042],[28.000284,43.225333],[28.000415,43.225546],[28.000498,43.225733],[28.001157,43.227936],[28.001336,43.228423],[28.00149,43.228741],[28.001918,43.229392],[28.002086,43.2296],[28.002861,43.230369]]}},{"type":"Feature","properties":{"mode":"bus","n":5,"arr":["9","31A","109","209 Б","409"],"lines":"9, 31A, 109, 209 Б, 409"},"geometry":{"type":"LineString","coordinates":[[28.004834,43.232378],[28.004364,43.232005],[28.003856,43.231556],[28.003225,43.230941],[28.002237,43.229927],[28.001581,43.229111],[28.001238,43.228475],[28.001044,43.227999],[28.000544,43.226156],[28.000362,43.225634],[28.000242,43.225438],[28.000097,43.225277],[27.999867,43.225092],[27.999588,43.224943],[27.999411,43.224879],[27.998927,43.224764],[27.997136,43.224443],[27.996776,43.22439],[27.994976,43.224257],[27.993633,43.224074],[27.992205,43.223762],[27.990715,43.223542],[27.989484,43.223429],[27.986496,43.223435],[27.985876,43.223389],[27.984971,43.223292],[27.979806,43.222594],[27.979039,43.222547],[27.978469,43.222538],[27.978041,43.222491],[27.97767,43.222428],[27.977497,43.222369],[27.977223,43.222234],[27.976854,43.221984],[27.976587,43.221698]]}},{"type":"Feature","properties":{"mode":"bus","n":5,"arr":["12","17","46 Б","55","88"],"lines":"12, 17, 46 Б, 55, 88"},"geometry":{"type":"LineString","coordinates":[[27.897445,43.180394],[27.897338,43.180408],[27.897275,43.180383],[27.897252,43.180353],[27.897247,43.180348],[27.897242,43.180346],[27.897239,43.180346],[27.897235,43.180349],[27.897232,43.180355],[27.897172,43.180508],[27.896756,43.180943],[27.896058,43.181651],[27.895728,43.181916],[27.895719,43.181926],[27.895717,43.181935],[27.895722,43.181944],[27.895735,43.181951],[27.895763,43.181964],[27.895776,43.181971],[27.895781,43.181979],[27.895779,43.181988],[27.895769,43.181998],[27.894573,43.182898],[27.893874,43.183387],[27.893387,43.183573],[27.893346,43.183635],[27.893335,43.183667],[27.893344,43.1837],[27.893378,43.183762],[27.89336,43.183863],[27.893316,43.183918],[27.893199,43.183978],[27.893032,43.183983],[27.892792,43.183921],[27.892088,43.183839],[27.891654,43.183831],[27.889336,43.184004],[27.889027,43.184004],[27.888539,43.183937],[27.88771,43.183754],[27.886523,43.183391],[27.886322,43.183348],[27.886035,43.183328],[27.885643,43.183345],[27.88533,43.183404],[27.885073,43.183514],[27.883351,43.184665]]}},{"type":"Feature","properties":{"mode":"bus","n":5,"arr":["12","17","46 Б","55","88"],"lines":"12, 17, 46 Б, 55, 88"},"geometry":{"type":"LineString","coordinates":[[27.882105,43.18473],[27.885125,43.183317],[27.885676,43.183212],[27.885917,43.183195],[27.886399,43.183228],[27.88711,43.18342],[27.887755,43.183626],[27.888726,43.183848],[27.889067,43.183885],[27.889364,43.183889],[27.889982,43.183852],[27.891718,43.183722],[27.892072,43.183717],[27.892737,43.183776],[27.892797,43.18376],[27.892825,43.183747],[27.892843,43.183728],[27.89287,43.183679],[27.892944,43.183622],[27.893042,43.183591],[27.893149,43.183589]]}},{"type":"Feature","properties":{"mode":"bus","n":5,"arr":["14","82","83","88","118"],"lines":"14, 82, 83, 88, 118"},"geometry":{"type":"LineString","coordinates":[[27.898833,43.219998],[27.900122,43.218967],[27.901717,43.217851],[27.901794,43.217701],[27.901758,43.217621],[27.90176,43.217519],[27.901843,43.217409],[27.901931,43.217362],[27.902026,43.217346],[27.902276,43.217359],[27.902502,43.217285],[27.906431,43.214489]]}},{"type":"Feature","properties":{"mode":"bus","n":5,"arr":["14","82","83","88","118"],"lines":"14, 82, 83, 88, 118"},"geometry":{"type":"LineString","coordinates":[[27.898881,43.220126],[27.899899,43.219298],[27.901781,43.217905],[27.901896,43.217854],[27.902001,43.217838],[27.902282,43.217856],[27.902455,43.217807],[27.902516,43.217751],[27.902569,43.217641],[27.902563,43.217542],[27.902538,43.217504],[27.90253,43.217483],[27.902536,43.217462],[27.902609,43.217326],[27.904551,43.215988],[27.906526,43.214559]]}},{"type":"Feature","properties":{"mode":"bus","n":5,"arr":["14","82","83","88","118"],"lines":"14, 82, 83, 88, 118"},"geometry":{"type":"LineString","coordinates":[[27.847527,43.246192],[27.847628,43.245522],[27.847973,43.24447],[27.848262,43.243803],[27.848764,43.242827],[27.848788,43.242799],[27.848828,43.242782],[27.849079,43.242726]]}},{"type":"Feature","properties":{"mode":"bus","n":5,"arr":["14","82","83","88","118"],"lines":"14, 82, 83, 88, 118"},"geometry":{"type":"LineString","coordinates":[[27.847859,43.245831],[27.848071,43.245031],[27.848219,43.244596],[27.848566,43.24379],[27.849008,43.242872]]}},{"type":"Feature","properties":{"mode":"bus","n":6,"arr":["17","20","23","46 Б","82","83"],"lines":"17, 20, 23, 46 Б, 82, 83"},"geometry":{"type":"LineString","coordinates":[[27.914563,43.198421],[27.91449,43.198371],[27.914399,43.198355],[27.914309,43.198371],[27.914239,43.198416]]}},{"type":"Feature","properties":{"mode":"bus","n":7,"arr":["17","20","23","39","46 Б","82","83"],"lines":"17, 20, 23, 39, 46 Б, 82, 83"},"geometry":{"type":"LineString","coordinates":[[27.914563,43.198421],[27.914591,43.198518],[27.914553,43.198583]]}},{"type":"Feature","properties":{"mode":"bus","n":7,"arr":["17","20","23","39","46 Б","82","83"],"lines":"17, 20, 23, 39, 46 Б, 82, 83"},"geometry":{"type":"LineString","coordinates":[[27.914239,43.198416],[27.91408,43.19846],[27.913942,43.198564],[27.913665,43.198648],[27.911537,43.19878]]}},{"type":"Feature","properties":{"mode":"bus","n":6,"arr":["17","20","23","39","46 Б","83"],"lines":"17, 20, 23, 39, 46 Б, 83"},"geometry":{"type":"LineString","coordinates":[[27.914553,43.198583],[27.914478,43.198626],[27.914362,43.198636]]}},{"type":"Feature","properties":{"mode":"bus","n":6,"arr":["1","7","18","22","122","409"],"lines":"1, 7, 18, 22, 122, 409"},"geometry":{"type":"LineString","coordinates":[[27.86997,43.222677],[27.871765,43.222293],[27.874553,43.221811]]}},{"type":"Feature","properties":{"mode":"bus","n":7,"arr":["1","7","18","22","41","122","409"],"lines":"1, 7, 18, 22, 41, 122, 409"},"geometry":{"type":"LineString","coordinates":[[27.874553,43.221811],[27.874682,43.221784]]}},{"type":"Feature","properties":{"mode":"bus","n":6,"arr":["1","18","22","41","122","409"],"lines":"1, 18, 22, 41, 122, 409"},"geometry":{"type":"LineString","coordinates":[[27.874682,43.221784],[27.885993,43.219964],[27.886822,43.219785],[27.887313,43.21963],[27.887935,43.219353]]}},{"type":"Feature","properties":{"mode":"bus","n":6,"arr":["1","18","22","41","122","409"],"lines":"1, 18, 22, 41, 122, 409"},"geometry":{"type":"LineString","coordinates":[[27.874659,43.221899],[27.886469,43.219989],[27.887143,43.219821],[27.887555,43.219673],[27.888167,43.2194]]}},{"type":"Feature","properties":{"mode":"bus","n":8,"arr":["1","10","18","22","41","122","148","409"],"lines":"1, 10, 18, 22, 41, 122, 148, 409"},"geometry":{"type":"LineString","coordinates":[[27.903993,43.212539],[27.906723,43.211681],[27.907118,43.211484],[27.907505,43.211191],[27.908011,43.210549],[27.908961,43.208961],[27.910359,43.206521]]}},{"type":"Feature","properties":{"mode":"bus","n":8,"arr":["1","10","18","22","41","122","148","409"],"lines":"1, 10, 18, 22, 41, 122, 148, 409"},"geometry":{"type":"LineString","coordinates":[[27.904058,43.212628],[27.906734,43.211794],[27.907113,43.211628],[27.907518,43.211351],[27.907809,43.211024],[27.90812,43.210599],[27.9091,43.209008],[27.909948,43.20754]]}},{"type":"Feature","properties":{"mode":"bus","n":9,"arr":["1","10","13","18","22","41","122","148","409"],"lines":"1, 10, 13, 18, 22, 41, 122, 148, 409"},"geometry":{"type":"LineString","coordinates":[[27.910359,43.206521],[27.910651,43.204898]]}},{"type":"Feature","properties":{"mode":"bus","n":9,"arr":["1","10","13","18","22","41","122","148","409"],"lines":"1, 10, 13, 18, 22, 41, 122, 148, 409"},"geometry":{"type":"LineString","coordinates":[[27.909948,43.20754],[27.910498,43.206589]]}},{"type":"Feature","properties":{"mode":"bus","n":14,"arr":["1","7","9","10","13","14","18","22","29","31","31A","41","109","122"],"lines":"1, 7, 9, 10, 13, 14, 18, 22, 29, 31, 31A, 41, 109, 122"},"geometry":{"type":"LineString","coordinates":[[27.910651,43.204898],[27.909221,43.204719],[27.908252,43.204662]]}},{"type":"Feature","properties":{"mode":"bus","n":20,"arr":["1","7","9","10","12","13","17","18","22","29","31","31A","39","41","46 Б","82","83","88","109","122"],"lines":"1, 7, 9, 10, 12, 13, 17, 18, 22, 29, 31, 31A, 39, 41, 46 Б, 82, 83, 88, 109, 122"},"geometry":{"type":"LineString","coordinates":[[27.908252,43.204662],[27.908295,43.204566]]}},{"type":"Feature","properties":{"mode":"bus","n":20,"arr":["1","7","9","10","13","17","18","22","29","31","31A","36","37","39","41","46 Б","55","82","83","109"],"lines":"1, 7, 9, 10, 13, 17, 18, 22, 29, 31, 31A, 36, 37, 39, 41, 46 Б, 55, 82, 83, 109"},"geometry":{"type":"LineString","coordinates":[[27.907683,43.201625],[27.907683,43.20172],[27.908009,43.203261],[27.908211,43.203657],[27.90837,43.203888],[27.908425,43.204067],[27.908399,43.204279],[27.908295,43.204566]]}},{"type":"Feature","properties":{"mode":"bus","n":21,"arr":["1","7","9","10","13","17","18","22","23","29","31","31A","36","37","39","41","46 Б","55","82","83","109"],"lines":"1, 7, 9, 10, 13, 17, 18, 22, 23, 29, 31, 31A, 36, 37, 39, 41, 46 Б, 55, 82, 83, 109"},"geometry":{"type":"LineString","coordinates":[[27.911562,43.198866],[27.911763,43.199778],[27.911708,43.199948],[27.911524,43.200298],[27.911399,43.200496],[27.911258,43.200658],[27.911089,43.200766],[27.91092,43.20083],[27.908756,43.201477],[27.907683,43.201625]]}},{"type":"Feature","properties":{"mode":"bus","n":19,"arr":["1","7","9","10","13","17","18","20","22","23","29","31","31A","36","37","41","46 Б","55","109"],"lines":"1, 7, 9, 10, 13, 17, 18, 20, 22, 23, 29, 31, 31A, 36, 37, 41, 46 Б, 55, 109"},"geometry":{"type":"LineString","coordinates":[[27.911562,43.198866],[27.910563,43.199072],[27.908948,43.199184],[27.908191,43.199279],[27.907786,43.199388],[27.906338,43.200003]]}},{"type":"Feature","properties":{"mode":"bus","n":19,"arr":["1","7","9","10","13","17","18","20","22","23","29","31","31A","36","37","41","46 Б","55","109"],"lines":"1, 7, 9, 10, 13, 17, 18, 20, 22, 23, 29, 31, 31A, 36, 37, 41, 46 Б, 55, 109"},"geometry":{"type":"LineString","coordinates":[[27.910902,43.198918],[27.910373,43.199],[27.908547,43.19913],[27.907957,43.19924]]}},{"type":"Feature","properties":{"mode":"bus","n":9,"arr":["1","10","20","23","29","36","46 Б","55","109"],"lines":"1, 10, 20, 23, 29, 36, 46 Б, 55, 109"},"geometry":{"type":"LineString","coordinates":[[27.906338,43.200003],[27.905585,43.200321]]}},{"type":"Feature","properties":{"mode":"bus","n":14,"arr":["1","7","9","18","20","22","23","29","31","36","37","41","46 Б","109"],"lines":"1, 7, 9, 18, 20, 22, 23, 29, 31, 36, 37, 41, 46 Б, 109"},"geometry":{"type":"LineString","coordinates":[[27.906338,43.200003],[27.906399,43.200109]]}},{"type":"Feature","properties":{"mode":"bus","n":10,"arr":["1","7","9","18","23","29","31","36","41","46 Б"],"lines":"1, 7, 9, 18, 23, 29, 31, 36, 41, 46 Б"},"geometry":{"type":"LineString","coordinates":[[27.906399,43.200109],[27.906497,43.200429]]}},{"type":"Feature","properties":{"mode":"bus","n":17,"arr":["1","7","9","10","13","17","18","20","22","23","29","31","36","37","41","46 Б","109"],"lines":"1, 7, 9, 10, 13, 17, 18, 20, 22, 23, 29, 31, 36, 37, 41, 46 Б, 109"},"geometry":{"type":"LineString","coordinates":[[27.906497,43.200429],[27.90665,43.200898]]}},{"type":"Feature","properties":{"mode":"bus","n":18,"arr":["1","7","9","10","13","17","18","20","22","23","29","31","31A","36","37","41","46 Б","109"],"lines":"1, 7, 9, 10, 13, 17, 18, 20, 22, 23, 29, 31, 31A, 36, 37, 41, 46 Б, 109"},"geometry":{"type":"LineString","coordinates":[[27.907997,43.199329],[27.90813,43.199632],[27.908133,43.199843],[27.908104,43.199925],[27.907642,43.200513],[27.907421,43.200674],[27.906812,43.200998],[27.906786,43.201006],[27.906763,43.201004],[27.906743,43.20099],[27.90665,43.200898]]}},{"type":"Feature","properties":{"mode":"bus","n":18,"arr":["1","7","9","10","13","17","18","20","22","29","31","31A","36","37","41","46 Б","55","109"],"lines":"1, 7, 9, 10, 13, 17, 18, 20, 22, 29, 31, 31A, 36, 37, 41, 46 Б, 55, 109"},"geometry":{"type":"LineString","coordinates":[[27.907957,43.19924],[27.907997,43.199329]]}},{"type":"Feature","properties":{"mode":"bus","n":16,"arr":["1","7","9","10","13","18","22","23","29","31","31A","36","37","41","55","109"],"lines":"1, 7, 9, 10, 13, 18, 22, 23, 29, 31, 31A, 36, 37, 41, 55, 109"},"geometry":{"type":"LineString","coordinates":[[27.911537,43.19878],[27.911405,43.19873],[27.911095,43.198709],[27.910998,43.198756],[27.910902,43.198918]]}},{"type":"Feature","properties":{"mode":"bus","n":21,"arr":["1","7","9","10","13","17","18","20","22","23","29","31","31A","36","37","39","41","55","82","83","109"],"lines":"1, 7, 9, 10, 13, 17, 18, 20, 22, 23, 29, 31, 31A, 36, 37, 39, 41, 55, 82, 83, 109"},"geometry":{"type":"LineString","coordinates":[[27.911537,43.19878],[27.911562,43.198866]]}},{"type":"Feature","properties":{"mode":"bus","n":9,"arr":["1","12","18","22","41","82","83","88","122"],"lines":"1, 12, 18, 22, 41, 82, 83, 88, 122"},"geometry":{"type":"LineString","coordinates":[[27.910384,43.206404],[27.908369,43.205524],[27.908208,43.205427],[27.908123,43.205292],[27.908106,43.205094],[27.908252,43.204662]]}},{"type":"Feature","properties":{"mode":"bus","n":6,"arr":["1","12","13","82","83","88"],"lines":"1, 12, 13, 82, 83, 88"},"geometry":{"type":"LineString","coordinates":[[27.910498,43.206589],[27.910359,43.206521]]}},{"type":"Feature","properties":{"mode":"bus","n":5,"arr":["1","18","22","122","409"],"lines":"1, 18, 22, 122, 409"},"geometry":{"type":"LineString","coordinates":[[27.874528,43.221925],[27.874659,43.221899]]}},{"type":"Feature","properties":{"mode":"bus","n":7,"arr":["7","14","82","83","88","118","148"],"lines":"7, 14, 82, 83, 88, 118, 148"},"geometry":{"type":"LineString","coordinates":[[27.888988,43.226466],[27.88954,43.226208],[27.890548,43.225562],[27.891199,43.225097],[27.892472,43.224125]]}},{"type":"Feature","properties":{"mode":"bus","n":7,"arr":["7","14","82","83","88","118","148"],"lines":"7, 14, 82, 83, 88, 118, 148"},"geometry":{"type":"LineString","coordinates":[[27.889524,43.226375],[27.892058,43.224559],[27.892712,43.224119]]}},{"type":"Feature","properties":{"mode":"bus","n":7,"arr":["7","14","82","83","88","118","148"],"lines":"7, 14, 82, 83, 88, 118, 148"},"geometry":{"type":"LineString","coordinates":[[27.888648,43.226594],[27.88876,43.226555]]}},{"type":"Feature","properties":{"mode":"bus","n":6,"arr":["7","14","82","83","88","118"],"lines":"7, 14, 82, 83, 88, 118"},"geometry":{"type":"LineString","coordinates":[[27.892472,43.224125],[27.893553,43.22351],[27.894904,43.222816],[27.895978,43.222229],[27.896532,43.221856],[27.897572,43.221063],[27.898833,43.219998]]}},{"type":"Feature","properties":{"mode":"bus","n":6,"arr":["7","14","82","83","88","118"],"lines":"7, 14, 82, 83, 88, 118"},"geometry":{"type":"LineString","coordinates":[[27.892712,43.224119],[27.8935,43.223644],[27.894959,43.222873],[27.896197,43.222169],[27.896906,43.22167],[27.898881,43.220126]]}},{"type":"Feature","properties":{"mode":"bus","n":6,"arr":["7","10","12","23","118","209"],"lines":"7, 10, 12, 23, 118, 209"},"geometry":{"type":"LineString","coordinates":[[27.910237,43.217356],[27.910125,43.217263]]}},{"type":"Feature","properties":{"mode":"bus","n":5,"arr":["7","10","12","23","209"],"lines":"7, 10, 12, 23, 209"},"geometry":{"type":"LineString","coordinates":[[27.91012,43.219273],[27.910972,43.218016],[27.910952,43.217915],[27.910237,43.217356]]}},{"type":"Feature","properties":{"mode":"bus","n":6,"arr":["7","29","31","31A","118","148"],"lines":"7, 29, 31, 31A, 118, 148"},"geometry":{"type":"LineString","coordinates":[[27.933896,43.218545],[27.933584,43.218349],[27.930766,43.216804],[27.929931,43.216374],[27.926709,43.214622],[27.926085,43.214235],[27.925439,43.213749],[27.925124,43.213476],[27.924319,43.212616],[27.920767,43.209915]]}},{"type":"Feature","properties":{"mode":"bus","n":6,"arr":["7","29","31","31A","118","148"],"lines":"7, 29, 31, 31A, 118, 148"},"geometry":{"type":"LineString","coordinates":[[27.92078,43.20976],[27.924426,43.212547],[27.925684,43.21368],[27.926453,43.214247],[27.927177,43.214684],[27.929269,43.215846],[27.933001,43.217874],[27.93422,43.218518],[27.93537,43.219081]]}},{"type":"Feature","properties":{"mode":"bus","n":5,"arr":["7","29","31","31A","148"],"lines":"7, 29, 31, 31A, 148"},"geometry":{"type":"LineString","coordinates":[[27.920767,43.209915],[27.920673,43.209844]]}},{"type":"Feature","properties":{"mode":"bus","n":5,"arr":["7","29","31","31A","148"],"lines":"7, 29, 31, 31A, 148"},"geometry":{"type":"LineString","coordinates":[[27.917466,43.207263],[27.92078,43.20976]]}},{"type":"Feature","properties":{"mode":"bus","n":6,"arr":["7","12","29","31","31A","148"],"lines":"7, 12, 29, 31, 31A, 148"},"geometry":{"type":"LineString","coordinates":[[27.920673,43.209844],[27.917332,43.207354]]}},{"type":"Feature","properties":{"mode":"bus","n":10,"arr":["7","9","12","14","29","31","31A","109","148","409"],"lines":"7, 9, 12, 14, 29, 31, 31A, 109, 148, 409"},"geometry":{"type":"LineString","coordinates":[[27.917332,43.207354],[27.916645,43.207076],[27.914775,43.20638]]}},{"type":"Feature","properties":{"mode":"bus","n":9,"arr":["7","9","14","29","31","31A","109","148","409"],"lines":"7, 9, 14, 29, 31, 31A, 109, 148, 409"},"geometry":{"type":"LineString","coordinates":[[27.914775,43.20638],[27.91323,43.205839],[27.912023,43.205366],[27.910785,43.204922]]}},{"type":"Feature","properties":{"mode":"bus","n":9,"arr":["7","9","14","29","31","31A","109","148","409"],"lines":"7, 9, 14, 29, 31, 31A, 109, 148, 409"},"geometry":{"type":"LineString","coordinates":[[27.910803,43.204808],[27.911015,43.204854],[27.912103,43.205252],[27.917466,43.207263]]}},{"type":"Feature","properties":{"mode":"bus","n":7,"arr":["7","9","14","29","31","31A","109"],"lines":"7, 9, 14, 29, 31, 31A, 109"},"geometry":{"type":"LineString","coordinates":[[27.910785,43.204922],[27.910651,43.204898]]}},{"type":"Feature","properties":{"mode":"bus","n":14,"arr":["7","9","10","13","18","23","29","31","31A","36","39","55","83","109"],"lines":"7, 9, 10, 13, 18, 23, 29, 31, 31A, 36, 39, 55, 83, 109"},"geometry":{"type":"LineString","coordinates":[[27.90762,43.201634],[27.907683,43.201625]]}},{"type":"Feature","properties":{"mode":"bus","n":12,"arr":["7","9","10","13","18","23","29","31","31A","36","55","109"],"lines":"7, 9, 10, 13, 18, 23, 29, 31, 31A, 36, 55, 109"},"geometry":{"type":"LineString","coordinates":[[27.905775,43.203092],[27.90612,43.202154],[27.906183,43.20205],[27.906334,43.201905],[27.906482,43.201825],[27.906666,43.201772],[27.90762,43.201634]]}},{"type":"Feature","properties":{"mode":"bus","n":13,"arr":["7","9","10","13","18","23","29","31","31A","36","37","55","109"],"lines":"7, 9, 10, 13, 18, 23, 29, 31, 31A, 36, 37, 55, 109"},"geometry":{"type":"LineString","coordinates":[[27.905775,43.203092],[27.905551,43.203333],[27.90505,43.203595]]}},{"type":"Feature","properties":{"mode":"bus","n":9,"arr":["7","9","10","13","18","29","31","31A","109"],"lines":"7, 9, 10, 13, 18, 29, 31, 31A, 109"},"geometry":{"type":"LineString","coordinates":[[27.90505,43.203595],[27.904925,43.203742],[27.904911,43.203907],[27.904996,43.204],[27.905238,43.204106]]}},{"type":"Feature","properties":{"mode":"bus","n":19,"arr":["7","9","10","12","13","14","17","18","29","31","31A","36","37","39","46 Б","55","88","109","122"],"lines":"7, 9, 10, 12, 13, 14, 17, 18, 29, 31, 31A, 36, 37, 39, 46 Б, 55, 88, 109, 122"},"geometry":{"type":"LineString","coordinates":[[27.905238,43.204106],[27.906612,43.20442],[27.90727,43.204497],[27.908295,43.204566]]}},{"type":"Feature","properties":{"mode":"bus","n":9,"arr":["7","9","10","13","14","29","31","31A","109"],"lines":"7, 9, 10, 13, 14, 29, 31, 31A, 109"},"geometry":{"type":"LineString","coordinates":[[27.908295,43.204566],[27.909267,43.204635],[27.910672,43.204782]]}},{"type":"Feature","properties":{"mode":"bus","n":11,"arr":["7","9","10","13","14","29","31","31A","109","148","409"],"lines":"7, 9, 10, 13, 14, 29, 31, 31A, 109, 148, 409"},"geometry":{"type":"LineString","coordinates":[[27.910672,43.204782],[27.910803,43.204808]]}},{"type":"Feature","properties":{"mode":"bus","n":7,"arr":["7","29","31","31A","118","148","209 Б"],"lines":"7, 29, 31, 31A, 118, 148, 209 Б"},"geometry":{"type":"LineString","coordinates":[[27.93537,43.219081],[27.935548,43.219157]]}},{"type":"Feature","properties":{"mode":"bus","n":7,"arr":["7","29","31","31A","118","148","209 Б"],"lines":"7, 29, 31, 31A, 118, 148, 209 Б"},"geometry":{"type":"LineString","coordinates":[[27.935173,43.219485],[27.935004,43.219419]]}},{"type":"Feature","properties":{"mode":"bus","n":9,"arr":["7","29","30","31","31A","118","148","209","209 Б"],"lines":"7, 29, 30, 31, 31A, 118, 148, 209, 209 Б"},"geometry":{"type":"LineString","coordinates":[[27.935548,43.219157],[27.936372,43.219497]]}},{"type":"Feature","properties":{"mode":"bus","n":9,"arr":["7","29","30","31","31A","118","148","209","209 Б"],"lines":"7, 29, 30, 31, 31A, 118, 148, 209, 209 Б"},"geometry":{"type":"LineString","coordinates":[[27.936339,43.219993],[27.935173,43.219485]]}},{"type":"Feature","properties":{"mode":"bus","n":5,"arr":["7","14","82","83","118"],"lines":"7, 14, 82, 83, 118"},"geometry":{"type":"LineString","coordinates":[[27.888843,43.226656],[27.889524,43.226375]]}},{"type":"Feature","properties":{"mode":"bus","n":7,"arr":["7","30","31A","118","148","209","209 Б"],"lines":"7, 30, 31A, 118, 148, 209, 209 Б"},"geometry":{"type":"LineString","coordinates":[[27.936372,43.219497],[27.937001,43.219641],[27.937545,43.219707],[27.938135,43.219728],[27.938779,43.219696],[27.943877,43.218997],[27.944219,43.218926],[27.944528,43.218834],[27.945105,43.218639],[27.945716,43.218363],[27.946003,43.218207],[27.946865,43.217671],[27.948406,43.216613],[27.950519,43.215206],[27.951,43.21493],[27.951353,43.214822],[27.951572,43.214794]]}},{"type":"Feature","properties":{"mode":"bus","n":7,"arr":["7","30","31A","118","148","209","209 Б"],"lines":"7, 30, 31A, 118, 148, 209, 209 Б"},"geometry":{"type":"LineString","coordinates":[[27.950174,43.215877],[27.948725,43.216843],[27.946291,43.218393],[27.945794,43.218612],[27.945202,43.218825],[27.944612,43.219006],[27.943963,43.219148],[27.939418,43.219746],[27.937988,43.219914]]}},{"type":"Feature","properties":{"mode":"bus","n":5,"arr":["7","30","118","148","209"],"lines":"7, 30, 118, 148, 209"},"geometry":{"type":"LineString","coordinates":[[27.951572,43.214794],[27.952212,43.214662]]}},{"type":"Feature","properties":{"mode":"bus","n":8,"arr":["7","14","17","30","39","118","148","209"],"lines":"7, 14, 17, 30, 39, 118, 148, 209"},"geometry":{"type":"LineString","coordinates":[[27.952212,43.214662],[27.953539,43.214931],[27.953709,43.215007],[27.953839,43.215108],[27.953943,43.21529],[27.953945,43.215362],[27.953828,43.215624],[27.953736,43.215726],[27.953603,43.2158],[27.953403,43.215858],[27.953158,43.215872],[27.952652,43.215796],[27.951818,43.215552],[27.951537,43.2155]]}},{"type":"Feature","properties":{"mode":"bus","n":5,"arr":["7","31A","118","148","209 Б"],"lines":"7, 31A, 118, 148, 209 Б"},"geometry":{"type":"LineString","coordinates":[[27.937988,43.219914],[27.937231,43.220027],[27.936879,43.220041],[27.936339,43.219993]]}},{"type":"Feature","properties":{"mode":"bus","n":5,"arr":["7","18","22","122","409"],"lines":"7, 18, 22, 122, 409"},"geometry":{"type":"LineString","coordinates":[[27.870005,43.222803],[27.870608,43.222641],[27.87135,43.222486],[27.874108,43.222006]]}},{"type":"Feature","properties":{"mode":"bus","n":6,"arr":["9","14","17","39","109","409"],"lines":"9, 14, 17, 39, 109, 409"},"geometry":{"type":"LineString","coordinates":[[27.923639,43.208223],[27.930966,43.209705],[27.931725,43.209886],[27.932595,43.210197],[27.933234,43.21048],[27.935152,43.211401],[27.935428,43.211572],[27.93732,43.212595],[27.938192,43.212996],[27.939242,43.213412],[27.940424,43.213771],[27.941104,43.213918],[27.942116,43.214086],[27.944949,43.214387]]}},{"type":"Feature","properties":{"mode":"bus","n":6,"arr":["9","14","17","39","109","409"],"lines":"9, 14, 17, 39, 109, 409"},"geometry":{"type":"LineString","coordinates":[[27.946205,43.21452],[27.949019,43.214822]]}},{"type":"Feature","properties":{"mode":"bus","n":6,"arr":["9","14","17","39","109","409"],"lines":"9, 14, 17, 39, 109, 409"},"geometry":{"type":"LineString","coordinates":[[27.952558,43.215357],[27.951488,43.215219],[27.949489,43.215009],[27.942904,43.214413],[27.942002,43.214304],[27.941193,43.214182],[27.940631,43.214073],[27.939208,43.213691],[27.937893,43.213193],[27.937328,43.212925],[27.933643,43.210854],[27.932896,43.210461],[27.932367,43.210232],[27.931901,43.210067],[27.931253,43.20989],[27.924476,43.208476],[27.92311,43.208271],[27.923001,43.208188]]}},{"type":"Feature","properties":{"mode":"bus","n":8,"arr":["9","14","17","31A","39","109","209 Б","409"],"lines":"9, 14, 17, 31A, 39, 109, 209 Б, 409"},"geometry":{"type":"LineString","coordinates":[[27.954011,43.215635],[27.952558,43.215357]]}},{"type":"Feature","properties":{"mode":"bus","n":8,"arr":["10","13","18","22","41","122","148","409"],"lines":"10, 13, 18, 22, 41, 122, 148, 409"},"geometry":{"type":"LineString","coordinates":[[27.910539,43.206479],[27.910498,43.206589]]}},{"type":"Feature","properties":{"mode":"bus","n":10,"arr":["10","12","13","17","36","37","46 Б","55","88","122"],"lines":"10, 12, 13, 17, 36, 37, 46 Б, 55, 88, 122"},"geometry":{"type":"LineString","coordinates":[[27.896492,43.198855],[27.896584,43.200092],[27.896695,43.200589],[27.896868,43.201074],[27.897081,43.201467],[27.897511,43.201994],[27.897976,43.20242],[27.898397,43.20273],[27.898906,43.20301],[27.899585,43.203303],[27.900378,43.203524],[27.901059,43.203614],[27.903784,43.203828],[27.904287,43.203899]]}},{"type":"Feature","properties":{"mode":"bus","n":10,"arr":["10","12","13","17","36","37","46 Б","55","88","122"],"lines":"10, 12, 13, 17, 36, 37, 46 Б, 55, 88, 122"},"geometry":{"type":"LineString","coordinates":[[27.898745,43.20314],[27.897864,43.202819],[27.897246,43.20253],[27.896692,43.202125],[27.89638,43.201789],[27.896243,43.201589],[27.896025,43.201152],[27.895923,43.200716],[27.895896,43.200339],[27.895986,43.199579]]}},{"type":"Feature","properties":{"mode":"bus","n":5,"arr":["10","23","36","37","55"],"lines":"10, 23, 36, 37, 55"},"geometry":{"type":"LineString","coordinates":[[27.904272,43.204062],[27.90505,43.203595]]}},{"type":"Feature","properties":{"mode":"bus","n":11,"arr":["10","12","13","17","23","36","37","46 Б","55","88","122"],"lines":"10, 12, 13, 17, 23, 36, 37, 46 Б, 55, 88, 122"},"geometry":{"type":"LineString","coordinates":[[27.898745,43.20314],[27.899996,43.20356],[27.900723,43.203709],[27.901457,43.203795],[27.903907,43.204009],[27.904272,43.204062]]}},{"type":"Feature","properties":{"mode":"bus","n":7,"arr":["12","17","36","37","46 Б","55","88"],"lines":"12, 17, 36, 37, 46 Б, 55, 88"},"geometry":{"type":"LineString","coordinates":[[27.883351,43.184665],[27.88305,43.184834],[27.882461,43.185086],[27.882007,43.185206],[27.881747,43.185252],[27.880729,43.185207],[27.879383,43.185026],[27.878976,43.185026],[27.878791,43.185053],[27.878571,43.185138],[27.878336,43.185267],[27.87813,43.185481],[27.878052,43.185612],[27.877993,43.185788],[27.877978,43.185963],[27.878041,43.186166],[27.878211,43.186421],[27.878676,43.18679],[27.893633,43.195044],[27.89412,43.195338],[27.89441,43.195543],[27.894864,43.195922],[27.895336,43.196431],[27.895594,43.196778],[27.895894,43.197279],[27.896139,43.197768],[27.896492,43.198855]]}},{"type":"Feature","properties":{"mode":"bus","n":7,"arr":["12","17","36","37","46 Б","55","88"],"lines":"12, 17, 36, 37, 46 Б, 55, 88"},"geometry":{"type":"LineString","coordinates":[[27.895986,43.199579],[27.896078,43.198997],[27.896086,43.198548],[27.89606,43.198263],[27.895939,43.197727],[27.895761,43.197289],[27.895486,43.196817],[27.89499,43.196197],[27.89457,43.195805],[27.894046,43.195409],[27.893562,43.195115],[27.879425,43.187311],[27.87901,43.187095],[27.877979,43.186828],[27.877616,43.1867],[27.877447,43.186627],[27.877186,43.186414],[27.877035,43.186092],[27.877001,43.185936],[27.877028,43.185726],[27.877167,43.185479],[27.87732,43.185317],[27.877514,43.185191],[27.877826,43.185041],[27.878176,43.18493],[27.878633,43.184846],[27.879058,43.184828],[27.879391,43.18484],[27.88048,43.185016],[27.880704,43.185037],[27.881015,43.18503],[27.88181,43.18484],[27.882105,43.18473]]}},{"type":"Feature","properties":{"mode":"bus","n":10,"arr":["12","14","17","36","37","39","46 Б","55","88","122"],"lines":"12, 14, 17, 36, 37, 39, 46 Б, 55, 88, 122"},"geometry":{"type":"LineString","coordinates":[[27.904287,43.203899],[27.905238,43.204106]]}},{"type":"Feature","properties":{"mode":"bus","n":9,"arr":["12","13","18","22","41","82","83","88","122"],"lines":"12, 13, 18, 22, 41, 82, 83, 88, 122"},"geometry":{"type":"LineString","coordinates":[[27.910539,43.206479],[27.910384,43.206404]]}},{"type":"Feature","properties":{"mode":"bus","n":5,"arr":["12","13","82","83","88"],"lines":"12, 13, 82, 83, 88"},"geometry":{"type":"LineString","coordinates":[[27.913472,43.207891],[27.911319,43.206968],[27.910498,43.206589]]}},{"type":"Feature","properties":{"mode":"bus","n":8,"arr":["12","13","14","17","39","46 Б","88","122"],"lines":"12, 13, 14, 17, 39, 46 Б, 88, 122"},"geometry":{"type":"LineString","coordinates":[[27.907819,43.204637],[27.908252,43.204662]]}},{"type":"Feature","properties":{"mode":"bus","n":7,"arr":["12","13","17","39","46 Б","88","122"],"lines":"12, 13, 17, 39, 46 Б, 88, 122"},"geometry":{"type":"LineString","coordinates":[[27.906029,43.204409],[27.906943,43.204563],[27.907819,43.204637]]}},{"type":"Feature","properties":{"mode":"bus","n":8,"arr":["12","13","17","23","39","46 Б","88","122"],"lines":"12, 13, 17, 23, 39, 46 Б, 88, 122"},"geometry":{"type":"LineString","coordinates":[[27.906029,43.204409],[27.904272,43.204062]]}},{"type":"Feature","properties":{"mode":"bus","n":6,"arr":["13","17","20","23","46 Б","55"],"lines":"13, 17, 20, 23, 46 Б, 55"},"geometry":{"type":"LineString","coordinates":[[27.911383,43.19881],[27.910902,43.198918]]}},{"type":"Feature","properties":{"mode":"bus","n":6,"arr":["13","17","20","23","36","46 Б"],"lines":"13, 17, 20, 23, 36, 46 Б"},"geometry":{"type":"LineString","coordinates":[[27.911537,43.19878],[27.911383,43.19881]]}},{"type":"Feature","properties":{"mode":"bus","n":5,"arr":["14","22","148","209","209 Б"],"lines":"14, 22, 148, 209, 209 Б"},"geometry":{"type":"LineString","coordinates":[[27.851576,43.251242],[27.850661,43.251709]]}},{"type":"Feature","properties":{"mode":"bus","n":6,"arr":["20","41","83","88","122","209 Б"],"lines":"20, 41, 83, 88, 122, 209 Б"},"geometry":{"type":"LineString","coordinates":[[27.850868,43.251716],[27.850661,43.251709]]}},{"type":"Feature","properties":{"mode":"bus","n":10,"arr":["14","20","22","82","83","88","122","148","209","209 Б"],"lines":"14, 20, 22, 82, 83, 88, 122, 148, 209, 209 Б"},"geometry":{"type":"LineString","coordinates":[[27.850661,43.251709],[27.850495,43.251739]]}},{"type":"Feature","properties":{"mode":"bus","n":9,"arr":["14","20","22","82","88","122","148","209","209 Б"],"lines":"14, 20, 22, 82, 88, 122, 148, 209, 209 Б"},"geometry":{"type":"LineString","coordinates":[[27.850495,43.251739],[27.850314,43.251796],[27.850214,43.251782]]}},{"type":"Feature","properties":{"mode":"bus","n":9,"arr":["14","20","22","82","88","122","148","209","209 Б"],"lines":"14, 20, 22, 82, 88, 122, 148, 209, 209 Б"},"geometry":{"type":"LineString","coordinates":[[27.850106,43.251653],[27.849395,43.250867],[27.848997,43.250332],[27.848715,43.249932],[27.848184,43.248943],[27.847867,43.248226],[27.847595,43.247309],[27.847512,43.246698],[27.847527,43.246192]]}},{"type":"Feature","properties":{"mode":"bus","n":9,"arr":["14","20","22","82","88","122","148","209","209 Б"],"lines":"14, 20, 22, 82, 88, 122, 148, 209, 209 Б"},"geometry":{"type":"LineString","coordinates":[[27.850309,43.251533],[27.849198,43.250179],[27.848937,43.249783],[27.848565,43.249113],[27.847994,43.247746],[27.847845,43.247156],[27.847798,43.24656]]}},{"type":"Feature","properties":{"mode":"bus","n":11,"arr":["14","20","22","41","82","83","88","122","148","209","209 Б"],"lines":"14, 20, 22, 41, 82, 83, 88, 122, 148, 209, 209 Б"},"geometry":{"type":"LineString","coordinates":[[27.850214,43.251782],[27.850106,43.251653]]}},{"type":"Feature","properties":{"mode":"bus","n":11,"arr":["14","20","22","41","82","83","88","122","148","209","209 Б"],"lines":"14, 20, 22, 41, 82, 83, 88, 122, 148, 209, 209 Б"},"geometry":{"type":"LineString","coordinates":[[27.850309,43.251533],[27.850387,43.251496]]}},{"type":"Feature","properties":{"mode":"bus","n":6,"arr":["14","41","82","83","88","118"],"lines":"14, 41, 82, 83, 88, 118"},"geometry":{"type":"LineString","coordinates":[[27.849079,43.242726],[27.851971,43.242687],[27.853063,43.242549],[27.853535,43.242439],[27.855737,43.241728],[27.857573,43.241465]]}},{"type":"Feature","properties":{"mode":"bus","n":6,"arr":["14","41","82","83","88","118"],"lines":"14, 41, 82, 83, 88, 118"},"geometry":{"type":"LineString","coordinates":[[27.849008,43.242872],[27.852271,43.242785],[27.853568,43.242571],[27.855744,43.241859],[27.856117,43.241757],[27.856695,43.241667],[27.85762,43.241581]]}},{"type":"Feature","properties":{"mode":"bus","n":12,"arr":["14","20","22","41","82","83","88","118","122","148","209","209 Б"],"lines":"14, 20, 22, 41, 82, 83, 88, 118, 122, 148, 209, 209 Б"},"geometry":{"type":"LineString","coordinates":[[27.864638,43.241351],[27.865249,43.241218],[27.865888,43.241042],[27.870423,43.239542],[27.871261,43.239367]]}},{"type":"Feature","properties":{"mode":"bus","n":9,"arr":["14","22","41","82","118","122","148","209","209 Б"],"lines":"14, 22, 41, 82, 118, 122, 148, 209, 209 Б"},"geometry":{"type":"LineString","coordinates":[[27.871261,43.239367],[27.870392,43.2352],[27.869996,43.233673]]}},{"type":"Feature","properties":{"mode":"bus","n":5,"arr":["14","41","148","209","209 Б"],"lines":"14, 41, 148, 209, 209 Б"},"geometry":{"type":"LineString","coordinates":[[27.869996,43.233673],[27.875472,43.234347],[27.875988,43.234396],[27.876654,43.234421]]}},{"type":"Feature","properties":{"mode":"bus","n":6,"arr":["14","82","83","88","118","148"],"lines":"14, 82, 83, 88, 118, 148"},"geometry":{"type":"LineString","coordinates":[[27.88876,43.226555],[27.888988,43.226466]]}},{"type":"Feature","properties":{"mode":"bus","n":7,"arr":["14","17","30","39","118","148","209"],"lines":"14, 17, 30, 39, 118, 148, 209"},"geometry":{"type":"LineString","coordinates":[[27.951537,43.2155],[27.951422,43.215523],[27.951338,43.215574],[27.951294,43.215691],[27.951327,43.215764],[27.951469,43.215875],[27.952176,43.216286],[27.952251,43.216417],[27.952266,43.21653],[27.951864,43.21724],[27.951427,43.217932],[27.951433,43.218033],[27.951527,43.218127],[27.951626,43.218171],[27.954931,43.218112],[27.956779,43.218302]]}},{"type":"Feature","properties":{"mode":"bus","n":6,"arr":["14","17","39","118","148","209"],"lines":"14, 17, 39, 118, 148, 209"},"geometry":{"type":"LineString","coordinates":[[27.956779,43.218302],[27.957135,43.218342]]}},{"type":"Feature","properties":{"mode":"bus","n":9,"arr":["14","20","22","41","118","122","148","209","209 Б"],"lines":"14, 20, 22, 41, 118, 122, 148, 209, 209 Б"},"geometry":{"type":"LineString","coordinates":[[27.85762,43.241581],[27.857573,43.241465]]}},{"type":"Feature","properties":{"mode":"bus","n":5,"arr":["17","23","39","46 Б","83"],"lines":"17, 23, 39, 46 Б, 83"},"geometry":{"type":"LineString","coordinates":[[27.914362,43.198636],[27.914126,43.198698],[27.91178,43.198823],[27.911562,43.198866]]}},{"type":"Feature","properties":{"mode":"bus","n":10,"arr":["20","22","82","83","88","118","122","148","209","209 Б"],"lines":"20, 22, 82, 83, 88, 118, 122, 148, 209, 209 Б"},"geometry":{"type":"LineString","coordinates":[[27.870494,43.239663],[27.871432,43.239458]]}},{"type":"Feature","properties":{"mode":"bus","n":10,"arr":["20","22","82","83","88","118","122","148","209","209 Б"],"lines":"20, 22, 82, 83, 88, 118, 122, 148, 209, 209 Б"},"geometry":{"type":"LineString","coordinates":[[27.866942,43.240804],[27.86616,43.241066],[27.865313,43.241313],[27.864587,43.241475],[27.864008,43.24154],[27.86337,43.241563],[27.85762,43.241581]]}},{"type":"Feature","properties":{"mode":"bus","n":10,"arr":["20","22","82","83","88","118","122","148","209","209 Б"],"lines":"20, 22, 82, 83, 88, 118, 122, 148, 209, 209 Б"},"geometry":{"type":"LineString","coordinates":[[27.857573,43.241465],[27.860526,43.24143],[27.863883,43.241446],[27.864638,43.241351]]}},{"type":"Feature","properties":{"mode":"bus","n":9,"arr":["20","22","82","88","118","122","148","209","209 Б"],"lines":"20, 22, 82, 88, 118, 122, 148, 209, 209 Б"},"geometry":{"type":"LineString","coordinates":[[27.870494,43.239663],[27.866942,43.240804]]}},{"type":"Feature","properties":{"mode":"bus","n":7,"arr":["20","22","118","122","148","209","209 Б"],"lines":"20, 22, 118, 122, 148, 209, 209 Б"},"geometry":{"type":"LineString","coordinates":[[27.855839,43.245658],[27.85667,43.245573],[27.856956,43.245491],[27.85763,43.245188],[27.857914,43.245016],[27.857928,43.245004],[27.857933,43.244992],[27.85793,43.24498],[27.857918,43.244967],[27.857856,43.244919],[27.857819,43.244719],[27.857728,43.242799],[27.85762,43.241581]]}},{"type":"Feature","properties":{"mode":"bus","n":7,"arr":["20","22","118","122","148","209","209 Б"],"lines":"20, 22, 118, 122, 148, 209, 209 Б"},"geometry":{"type":"LineString","coordinates":[[27.857856,43.244919],[27.857098,43.245277],[27.856771,43.245396],[27.855839,43.245658],[27.853428,43.245929],[27.850716,43.246056],[27.847812,43.246156]]}},{"type":"Feature","properties":{"mode":"bus","n":6,"arr":["20","22","122","148","209","209 Б"],"lines":"20, 22, 122, 148, 209, 209 Б"},"geometry":{"type":"LineString","coordinates":[[27.847798,43.24656],[27.847935,43.246324],[27.848041,43.246247],[27.848442,43.246141]]}},{"type":"Feature","properties":{"mode":"bus","n":8,"arr":["20","22","83","118","122","148","209","209 Б"],"lines":"20, 22, 83, 118, 122, 148, 209, 209 Б"},"geometry":{"type":"LineString","coordinates":[[27.847812,43.246156],[27.847527,43.246192]]}},{"type":"Feature","properties":{"mode":"bus","n":7,"arr":["22","82","118","122","148","209","209 Б"],"lines":"22, 82, 118, 122, 148, 209, 209 Б"},"geometry":{"type":"LineString","coordinates":[[27.871432,43.239458],[27.871244,43.238453],[27.870253,43.234084]]}},{"type":"Feature","properties":{"mode":"bus","n":5,"arr":["29","31","31A","118","148"],"lines":"29, 31, 31A, 118, 148"},"geometry":{"type":"LineString","coordinates":[[27.935004,43.219419],[27.934715,43.219246],[27.933896,43.218545]]}}]}